{
  "type": "FeatureCollection",
  "features": [
    {
      "type": "Feature",
      "properties": {
        "norad_id": 65731,
        "name": "1998-067XK",
        "group": "stations",
        "lat": -46.67067547319814,
        "lon": 21.296547946945935,
        "alt_km": 373.2944303108361,
        "timestamp": "2025-12-11T08:58:25.875366+00:00",
        "meta_object_name": "1998-067XK",
        "meta_object_id": "1998-067XK",
        "meta_epoch": "2025-12-10T11:59:54.530016",
        "meta_mean_motion": 15.65134348,
        "meta_eccentricity": 0.00051808,
        "meta_inclination": 51.6281,
        "meta_ra_of_asc_node": 148.5918,
        "meta_arg_of_pericenter": 231.8122,
        "meta_mean_anomaly": 128.2407,
        "meta_ephemeris_type": 0,
        "meta_classification_type": "U",
        "meta_norad_cat_id": 65731,
        "meta_element_set_no": 999,
        "meta_rev_at_epoch": 1279,
        "meta_bstar": 0.0012258975,
        "meta_mean_motion_dot": 0.00124892,
        "meta_mean_motion_ddot": 0,
        "tle_line1": "1 65731U 98067XK  25344.49993669  .00124892  00000+0  12259-2 0  9991",
        "tle_line2": "2 65731  51.6281 148.5918 0005180 231.8122 128.2407 15.65134348 12799"
      },
      "geometry": {
        "type": "Point",
        "coordinates": [
          21.296547946945935,
          -46.67067547319814
        ]
      }
    },
    {
      "type": "Feature",
      "properties": {
        "norad_id": 65732,
        "name": "RSP-03",
        "group": "stations",
        "lat": -20.576894642783447,
        "lon": -19.206823237124947,
        "alt_km": 363.9547351104293,
        "timestamp": "2025-12-11T08:58:25.875379+00:00",
        "meta_object_name": "RSP-03",
        "meta_object_id": "1998-067XL",
        "meta_epoch": "2025-12-10T19:51:35.371008",
        "meta_mean_motion": 15.67939317,
        "meta_eccentricity": 0.00058921,
        "meta_inclination": 51.6264,
        "meta_ra_of_asc_node": 146.2697,
        "meta_arg_of_pericenter": 237.5222,
        "meta_mean_anomaly": 122.5205,
        "meta_ephemeris_type": 0,
        "meta_classification_type": "U",
        "meta_norad_cat_id": 65732,
        "meta_element_set_no": 999,
        "meta_rev_at_epoch": 1286,
        "meta_bstar": 0.0014115641,
        "meta_mean_motion_dot": 0.00161929,
        "meta_mean_motion_ddot": 0,
        "tle_line1": "1 65732U 98067XL  25344.82749272  .00161929  00000+0  14116-2 0  9994",
        "tle_line2": "2 65732  51.6264 146.2697 0005892 237.5222 122.5205 15.67939317 12866"
      },
      "geometry": {
        "type": "Point",
        "coordinates": [
          -19.206823237124947,
          -20.576894642783447
        ]
      }
    },
    {
      "type": "Feature",
      "properties": {
        "norad_id": 65733,
        "name": "GHS-01",
        "group": "stations",
        "lat": 51.4146658539051,
        "lon": -121.0449848386818,
        "alt_km": 344.9906477378918,
        "timestamp": "2025-12-11T08:58:25.875389+00:00",
        "meta_object_name": "GHS-01",
        "meta_object_id": "1998-067XM",
        "meta_epoch": "2025-12-11T04:00:14.107680",
        "meta_mean_motion": 15.73916996,
        "meta_eccentricity": 0.0006984,
        "meta_inclination": 51.6283,
        "meta_ra_of_asc_node": 143.2841,
        "meta_arg_of_pericenter": 269.574,
        "meta_mean_anomaly": 90.4459,
        "meta_ephemeris_type": 0,
        "meta_classification_type": "U",
        "meta_norad_cat_id": 65733,
        "meta_element_set_no": 999,
        "meta_rev_at_epoch": 1293,
        "meta_bstar": 0.0018349,
        "meta_mean_motion_dot": 0.0027452,
        "meta_mean_motion_ddot": 0,
        "tle_line1": "1 65733U 98067XM  25345.16682995  .00274520  00000+0  18349-2 0  9995",
        "tle_line2": "2 65733  51.6283 143.2841 0006984 269.5740  90.4459 15.73916996 12936"
      },
      "geometry": {
        "type": "Point",
        "coordinates": [
          -121.0449848386818,
          51.4146658539051
        ]
      }
    },
    {
      "type": "Feature",
      "properties": {
        "norad_id": 65941,
        "name": "YOTSUBA-KULOVER",
        "group": "stations",
        "lat": 30.087789960403743,
        "lon": 174.16820111385263,
        "alt_km": 387.19551634007166,
        "timestamp": "2025-12-11T08:58:25.875402+00:00",
        "meta_object_name": "YOTSUBA-KULOVER",
        "meta_object_id": "1998-067XN",
        "meta_epoch": "2025-12-10T11:16:03.070272",
        "meta_mean_motion": 15.59021065,
        "meta_eccentricity": 0.00015507,
        "meta_inclination": 51.6286,
        "meta_ra_of_asc_node": 151.3857,
        "meta_arg_of_pericenter": 232.2961,
        "meta_mean_anomaly": 127.7891,
        "meta_ephemeris_type": 0,
        "meta_classification_type": "U",
        "meta_norad_cat_id": 65941,
        "meta_element_set_no": 999,
        "meta_rev_at_epoch": 950,
        "meta_bstar": 0.0011321165,
        "meta_mean_motion_dot": 0.00090413,
        "meta_mean_motion_ddot": 0,
        "tle_line1": "1 65941U 98067XN  25344.46947998  .00090413  00000+0  11321-2 0  9995",
        "tle_line2": "2 65941  51.6286 151.3857 0001550 232.2961 127.7891 15.59021065  9504"
      },
      "geometry": {
        "type": "Point",
        "coordinates": [
          174.16820111385263,
          30.087789960403743
        ]
      }
    },
    {
      "type": "Feature",
      "properties": {
        "norad_id": 65942,
        "name": "BOTAN",
        "group": "stations",
        "lat": -6.440658471783658,
        "lon": 141.05867657389902,
        "alt_km": 383.4891864303381,
        "timestamp": "2025-12-11T08:58:25.875412+00:00",
        "meta_object_name": "BOTAN",
        "meta_object_id": "1998-067XP",
        "meta_epoch": "2025-12-10T11:31:01.401312",
        "meta_mean_motion": 15.62212709,
        "meta_eccentricity": 0.00033822,
        "meta_inclination": 51.6281,
        "meta_ra_of_asc_node": 150.7055,
        "meta_arg_of_pericenter": 220.3642,
        "meta_mean_anomaly": 139.7102,
        "meta_ephemeris_type": 0,
        "meta_classification_type": "U",
        "meta_norad_cat_id": 65942,
        "meta_element_set_no": 999,
        "meta_rev_at_epoch": 951,
        "meta_bstar": 0.0015087728,
        "meta_mean_motion_dot": 0.00137252,
        "meta_mean_motion_ddot": 0,
        "tle_line1": "1 65942U 98067XP  25344.47987733  .00137252  00000+0  15088-2 0  9995",
        "tle_line2": "2 65942  51.6281 150.7055 0003382 220.3642 139.7102 15.62212709  9512"
      },
      "geometry": {
        "type": "Point",
        "coordinates": [
          141.05867657389902,
          -6.440658471783658
        ]
      }
    },
    {
      "type": "Feature",
      "properties": {
        "norad_id": 65943,
        "name": "E-KAGAKU-1",
        "group": "stations",
        "lat": 30.145145928108875,
        "lon": 174.2290006917189,
        "alt_km": 389.2914732507488,
        "timestamp": "2025-12-11T08:58:25.875423+00:00",
        "meta_object_name": "E-KAGAKU-1",
        "meta_object_id": "1998-067XQ",
        "meta_epoch": "2025-12-10T06:39:08.237952",
        "meta_mean_motion": 15.5900432,
        "meta_eccentricity": 0.00052507,
        "meta_inclination": 51.6298,
        "meta_ra_of_asc_node": 152.3458,
        "meta_arg_of_pericenter": 191.2269,
        "meta_mean_anomaly": 168.8608,
        "meta_ephemeris_type": 0,
        "meta_classification_type": "U",
        "meta_norad_cat_id": 65943,
        "meta_element_set_no": 999,
        "meta_rev_at_epoch": 947,
        "meta_bstar": 0.0012588803,
        "meta_mean_motion_dot": 0.00100705,
        "meta_mean_motion_ddot": 0,
        "tle_line1": "1 65943U 98067XQ  25344.27717868  .00100705  00000+0  12589-2 0  9990",
        "tle_line2": "2 65943  51.6298 152.3458 0005250 191.2269 168.8608 15.59004320  9476"
      },
      "geometry": {
        "type": "Point",
        "coordinates": [
          174.2290006917189,
          30.145145928108875
        ]
      }
    },
    {
      "type": "Feature",
      "properties": {
        "norad_id": 66052,
        "name": "HRC MONOBLOCK CAMERA",
        "group": "stations",
        "lat": 36.57467929767017,
        "lon": -175.67534765388788,
        "alt_km": 401.72211464007523,
        "timestamp": "2025-12-11T08:58:25.875433+00:00",
        "meta_object_name": "HRC MONOBLOCK CAMERA",
        "meta_object_id": "1998-067XR",
        "meta_epoch": "2025-12-11T04:07:53.480064",
        "meta_mean_motion": 15.53961179,
        "meta_eccentricity": 0.0003533,
        "meta_inclination": 51.6288,
        "meta_ra_of_asc_node": 149.3227,
        "meta_arg_of_pericenter": 176.6815,
        "meta_mean_anomaly": 183.4199,
        "meta_ephemeris_type": 0,
        "meta_classification_type": "U",
        "meta_norad_cat_id": 66052,
        "meta_element_set_no": 999,
        "meta_rev_at_epoch": 859,
        "meta_bstar": 0.0007811,
        "meta_mean_motion_dot": 0.00051254,
        "meta_mean_motion_ddot": 0,
        "tle_line1": "1 66052U 98067XR  25345.17214676  .00051254  00000+0  78110-3 0  9998",
        "tle_line2": "2 66052  51.6288 149.3227 0003533 176.6815 183.4199 15.53961179  8591"
      },
      "geometry": {
        "type": "Point",
        "coordinates": [
          -175.67534765388788,
          36.57467929767017
        ]
      }
    }
  ]
}